CTC1_L_00396001-01
1 37864U 24489NK  26070.40835648  .00000000  00000+0  00000-0 0  9997
2 37864  40.0000   0.0000 0000000   0.0000   0.0000 12.90384021    15
CTC1_L_00396001-02
1 37865U 26646MQ  26070.40835648  .00000000  00000+0  00000-0 0  9995
2 37865  40.0000   0.0000 0000000   0.0000  90.0000 12.90384021    15
CTC1_L_00396001-03
1 37866U 26695BZ  26070.40835648  .00000000  00000+0  00000-0 0  9990
2 37866  40.0000   0.0000 0000000   0.0000 180.0000 12.90384021    16
CTC1_L_00396001-04
1 37867U 26240CU  26070.40835648  .00000000  00000+0  00000-0 0  9997
2 37867  40.0000   0.0000 0000000   0.0000 270.0000 12.90384021    17
CTC1_L_00396002-01
1 37868U 26980PP  26070.40835648  .00000000  00000+0  00000-0 0  9999
2 37868  40.0000  12.0000 0000000   0.0000  12.0000 12.90384021    15
CTC1_L_00396002-02
1 37869U 26363AY  26070.40835648  .00000000  00000+0  00000-0 0  9995
2 37869  40.0000  12.0000 0000000   0.0000 102.0000 12.90384021    16
CTC1_L_00396002-03
1 37870U 25397RF  26070.40835648  .00000000  00000+0  00000-0 0  9993
2 37870  40.0000  12.0000 0000000   0.0000 192.0000 12.90384021    17
CTC1_L_00396002-04
1 37871U 24138LC  26070.40835648  .00000000  00000+0  00000-0 0  9996
2 37871  40.0000  12.0000 0000000   0.0000 282.0000 12.90384021    18
CTC1_L_00396003-01
1 37872U 23436SB  26070.40835648  .00000000  00000+0  00000-0 0  9997
2 37872  40.0000  24.0000 0000000   0.0000  24.0000 12.90384021    16
CTC1_L_00396003-02
1 37873U 23301ER  26070.40835648  .00000000  00000+0  00000-0 0  9999
2 37873  40.0000  24.0000 0000000   0.0000 114.0000 12.90384021    17
CTC1_L_00396003-03
1 37874U 26439ET  26070.40835648  .00000000  00000+0  00000-0 0  9995
2 37874  40.0000  24.0000 0000000   0.0000 204.0000 12.90384021    18
CTC1_L_00396003-04
1 37875U 24926VV  26070.40835648  .00000000  00000+0  00000-0 0  9995
2 37875  40.0000  24.0000 0000000   0.0000 294.0000 12.90384021    18
CTC1_L_00396004-01
1 37876U 23379YR  26070.40835648  .00000000  00000+0  00000-0 0  9997
2 37876  40.0000  36.0000 0000000   0.0000  36.0000 12.90384021    16
CTC1_L_00396004-02
1 37877U 23369CY  26070.40835648  .00000000  00000+0  00000-0 0  9997
2 37877  40.0000  36.0000 0000000   0.0000 126.0000 12.90384021    17
CTC1_L_00396004-03
1 37878U 23353IF  26070.40835648  .00000000  00000+0  00000-0 0  9991
2 37878  40.0000  36.0000 0000000   0.0000 216.0000 12.90384021    18
CTC1_L_00396004-04
1 37879U 23142GJ  26070.40835648  .00000000  00000+0  00000-0 0  9998
2 37879  40.0000  36.0000 0000000   0.0000 306.0000 12.90384021    19
CTC1_L_00396005-01
1 37880U 22761IC  26070.40835648  .00000000  00000+0  00000-0 0  9996
2 37880  40.0000  48.0000 0000000   0.0000  48.0000 12.90384021    17
CTC1_L_00396005-02
1 37881U 26622NW  26070.40835648  .00000000  00000+0  00000-0 0  9997
2 37881  40.0000  48.0000 0000000   0.0000 138.0000 12.90384021    18
CTC1_L_00396005-03
1 37882U 26176N   26070.40835648  .00000000  00000+0  00000-0 0  9992
2 37882  40.0000  48.0000 0000000   0.0000 228.0000 12.90384021    19
CTC1_L_00396005-04
1 37883U 22802TQ  26070.40835648  .00000000  00000+0  00000-0 0  9995
2 37883  40.0000  48.0000 0000000   0.0000 318.0000 12.90384021    10
CTC1_L_00396006-01
1 37884U 25127VT  26070.40835648  .00000000  00000+0  00000-0 0  9999
2 37884  40.0000  60.0000 0000000   0.0000  60.0000 12.90384021    19
CTC1_L_00396006-02
1 37885U 26328XT  26070.40835648  .00000000  00000+0  00000-0 0  9994
2 37885  40.0000  60.0000 0000000   0.0000 150.0000 12.90384021    10
CTC1_L_00396006-03
1 37886U 26067BI  26070.40835648  .00000000  00000+0  00000-0 0  9995
2 37886  40.0000  60.0000 0000000   0.0000 240.0000 12.90384021    11
CTC1_L_00396006-04
1 37887U 24710LM  26070.40835648  .00000000  00000+0  00000-0 0  9999
2 37887  40.0000  60.0000 0000000   0.0000 330.0000 12.90384021    12
CTC1_L_00396007-01
1 37888U 26776AR  26070.40835648  .00000000  00000+0  00000-0 0  9994
2 37888  40.0000  72.0000 0000000   0.0000  72.0000 12.90384021    19
CTC1_L_00396007-02
1 37889U 23275DW  26070.40835648  .00000000  00000+0  00000-0 0  9996
2 37889  40.0000  72.0000 0000000   0.0000 162.0000 12.90384021    10
CTC1_L_00396007-03
1 37890U 23601OS  26070.40835648  .00000000  00000+0  00000-0 0  9991
2 37890  40.0000  72.0000 0000000   0.0000 252.0000 12.90384021    12
CTC1_L_00396007-04
1 37891U 23074FM  26070.40835648  .00000000  00000+0  00000-0 0  9996
2 37891  40.0000  72.0000 0000000   0.0000 342.0000 12.90384021    13
CTC1_L_00396008-01
1 37892U 23949GR  26070.40835648  .00000000  00000+0  00000-0 0  9998
2 37892  40.0000  84.0000 0000000   0.0000  84.0000 12.90384021    10
CTC1_L_00396008-02
1 37893U 26196IJ  26070.40835648  .00000000  00000+0  00000-0 0  9996
2 37893  40.0000  84.0000 0000000   0.0000 174.0000 12.90384021    11
CTC1_L_00396008-03
1 37894U 25588KH  26070.40835648  .00000000  00000+0  00000-0 0  9991
2 37894  40.0000  84.0000 0000000   0.0000 264.0000 12.90384021    12
CTC1_L_00396008-04
1 37895U 23674AC  26070.40835648  .00000000  00000+0  00000-0 0  9996
2 37895  40.0000  84.0000 0000000   0.0000 354.0000 12.90384021    13
CTC1_L_00396009-01
1 37896U 22696JZ  26070.40835648  .00000000  00000+0  00000-0 0  9990
2 37896  40.0000  96.0000 0000000   0.0000  96.0000 12.90384021    10
CTC1_L_00396009-02
1 37897U 22210DG  26070.40835648  .00000000  00000+0  00000-0 0  9993
2 37897  40.0000  96.0000 0000000   0.0000 186.0000 12.90384021    11
CTC1_L_00396009-03
1 37898U 23936EX  26070.40835648  .00000000  00000+0  00000-0 0  9990
2 37898  40.0000  96.0000 0000000   0.0000 276.0000 12.90384021    12
CTC1_L_00396009-04
1 37899U 22154JD  26070.40835648  .00000000  00000+0  00000-0 0  9992
2 37899  40.0000  96.0000 0000000   0.0000   6.0000 12.90384021    14
CTC1_L_00396010-01
1 37900U 26041WT  26070.40835648  .00000000  00000+0  00000-0 0  9994
2 37900  40.0000 108.0000 0000000   0.0000 108.0000 12.90384021    14
CTC1_L_00396010-02
1 37901U 22195VQ  26070.40835648  .00000000  00000+0  00000-0 0  9991
2 37901  40.0000 108.0000 0000000   0.0000 198.0000 12.90384021    14
CTC1_L_00396010-03
1 37902U 22753OR  26070.40835648  .00000000  00000+0  00000-0 0  9992
2 37902  40.0000 108.0000 0000000   0.0000 288.0000 12.90384021    15
CTC1_L_00396010-04
1 37903U 25600VE  26070.40835648  .00000000  00000+0  00000-0 0  9997
2 37903  40.0000 108.0000 0000000   0.0000  18.0000 12.90384021    17
CTC1_L_00396011-01
1 37904U 22581GK  26070.40835648  .00000000  00000+0  00000-0 0  9993
2 37904  40.0000 120.0000 0000000   0.0000 120.0000 12.90384021    16
CTC1_L_00396011-02
1 37905U 24129XO  26070.40835648  .00000000  00000+0  00000-0 0  9994
2 37905  40.0000 120.0000 0000000   0.0000 210.0000 12.90384021    17
CTC1_L_00396011-03
1 37906U 23036OJ  26070.40835648  .00000000  00000+0  00000-0 0  9991
2 37906  40.0000 120.0000 0000000   0.0000 300.0000 12.90384021    18
CTC1_L_00396011-04
1 37907U 26182YO  26070.40835648  .00000000  00000+0  00000-0 0  9997
2 37907  40.0000 120.0000 0000000   0.0000  30.0000 12.90384021    19
CTC1_L_00396012-01
1 37908U 26195OX  26070.40835648  .00000000  00000+0  00000-0 0  9992
2 37908  40.0000 132.0000 0000000   0.0000 132.0000 12.90384021    16
CTC1_L_00396012-02
1 37909U 23822GF  26070.40835648  .00000000  00000+0  00000-0 0  9997
2 37909  40.0000 132.0000 0000000   0.0000 222.0000 12.90384021    17
CTC1_L_00396012-03
1 37910U 25104DT  26070.40835648  .00000000  00000+0  00000-0 0  9994
2 37910  40.0000 132.0000 0000000   0.0000 312.0000 12.90384021    19
CTC1_L_00396012-04
1 37911U 26351AX  26070.40835648  .00000000  00000+0  00000-0 0  9990
2 37911  40.0000 132.0000 0000000   0.0000  42.0000 12.90384021    10
CTC1_L_00396013-01
1 37912U 24514GB  26070.40835648  .00000000  00000+0  00000-0 0  9990
2 37912  40.0000 144.0000 0000000   0.0000 144.0000 12.90384021    17
CTC1_L_00396013-02
1 37913U 23076CL  26070.40835648  .00000000  00000+0  00000-0 0  9993
2 37913  40.0000 144.0000 0000000   0.0000 234.0000 12.90384021    18
CTC1_L_00396013-03
1 37914U 24532DT  26070.40835648  .00000000  00000+0  00000-0 0  9992
2 37914  40.0000 144.0000 0000000   0.0000 324.0000 12.90384021    19
CTC1_L_00396013-04
1 37915U 26624VP  26070.40835648  .00000000  00000+0  00000-0 0  9997
2 37915  40.0000 144.0000 0000000   0.0000  54.0000 12.90384021    10
CTC1_L_00396014-01
1 37916U 23596LR  26070.40835648  .00000000  00000+0  00000-0 0  9993
2 37916  40.0000 156.0000 0000000   0.0000 156.0000 12.90384021    17
CTC1_L_00396014-02
1 37917U 24502PW  26070.40835648  .00000000  00000+0  00000-0 0  9992
2 37917  40.0000 156.0000 0000000   0.0000 246.0000 12.90384021    18
CTC1_L_00396014-03
1 37918U 24597LC  26070.40835648  .00000000  00000+0  00000-0 0  9997
2 37918  40.0000 156.0000 0000000   0.0000 336.0000 12.90384021    19
CTC1_L_00396014-04
1 37919U 22682HB  26070.40835648  .00000000  00000+0  00000-0 0  9991
2 37919  40.0000 156.0000 0000000   0.0000  66.0000 12.90384021    10
CTC1_L_00396015-01
1 37920U 26473TU  26070.40835648  .00000000  00000+0  00000-0 0  9995
2 37920  40.0000 168.0000 0000000   0.0000 168.0000 12.90384021    18
CTC1_L_00396015-02
1 37921U 25604XN  26070.40835648  .00000000  00000+0  00000-0 0  9991
2 37921  40.0000 168.0000 0000000   0.0000 258.0000 12.90384021    19
CTC1_L_00396015-03
1 37922U 23738PO  26070.40835648  .00000000  00000+0  00000-0 0  9998
2 37922  40.0000 168.0000 0000000   0.0000 348.0000 12.90384021    10
CTC1_L_00396015-04
1 37923U 23429GR  26070.40835648  .00000000  00000+0  00000-0 0  9996
2 37923  40.0000 168.0000 0000000   0.0000  78.0000 12.90384021    11
CTC1_L_00396016-01
1 37924U 24312FL  26070.40835648  .00000000  00000+0  00000-0 0  9999
2 37924  40.0000 180.0000 0000000   0.0000 180.0000 12.90384021    10
CTC1_L_00396016-02
1 37925U 24788SK  26070.40835648  .00000000  00000+0  00000-0 0  9997
2 37925  40.0000 180.0000 0000000   0.0000 270.0000 12.90384021    11
